ONEWEB-0018             
1 45434U 20020L   26090.24260985 -.00000031  00000+0 -12433-3 0  9998
2 45434  87.8904  36.5599 0002123  89.2059 270.9313 13.11417265292410
ONEWEB-0083             
1 45435U 20020M   26090.23329921  .00000407  00000+0  11125-2 0  9995
2 45435  87.8909  36.5506 0001936  79.7381 280.3966 13.11415929292455
ONEWEB-0095             
1 45436U 20020N   26090.22410100  .00000589  00000+0  16248-2 0  9997
2 45436  87.8906  36.5602 0001554  55.6354 304.4921 13.11415668292458
ONEWEB-0092             
1 45437U 20020P   26090.11968759 -.00000277  00000+0 -81829-3 0  9998
2 45437  87.8910  36.5810 0001527  74.6993 285.4304 13.11419153292552
ONEWEB-0085             
1 45438U 20020Q   26090.23244127  .00000412  00000+0  11272-2 0  9991
2 45438  87.8904  36.5623 0001815  79.9061 280.2272 13.11416427292459
ONEWEB-0096             
1 45439U 20020R   26090.23414403  .00000296  00000+0  79985-3 0  9994
2 45439  87.8909  36.5513 0001811  82.2255 277.9078 13.11415579292444
ONEWEB-0037             
1 45440U 20020S   26090.21463977  .00000435  00000+0  11903-2 0  9994
2 45440  87.8919  36.5324 0001779  77.7805 282.3522 13.11418554292473
ONEWEB-0042             
1 45441U 20020T   26090.22382704  .00000520  00000+0  14325-2 0  9990
2 45441  87.8908  36.5505 0001767  82.1571 277.9758 13.11417471292445
ONEWEB-0098             
1 45442U 20020U   26090.21973519  .00000557  00000+0  15365-2 0  9995
2 45442  87.8905  36.5622 0001931  79.2295 280.9050 13.11417533292422
ONEWEB-0055             
1 45443U 20020V   26090.27905859  .00000072  00000+0  16610-3 0  9991
2 45443  87.8911  36.5507 0001926  79.3947 280.7397 13.11420532292404
ONEWEB-0093             
1 45444U 20020W   26090.10202622 -.00000487  00000+0 -14113-2 0  9999
2 45444  87.8908  36.5757 0001640  91.8165 268.3151 13.11416151292448
ONEWEB-0029             
1 45445U 20020X   26090.27057188 -.00000246  00000+0 -73093-3 0  9999
2 45445  87.8910  36.5535 0001861  84.5092 275.6248 13.11420352292445
ONEWEB-0068             
1 45446U 20020Y   26090.10174613 -.00000501  00000+0 -14490-2 0  9994
2 45446  87.8910  36.5786 0001837  86.0666 274.0672 13.11416530292369
ONEWEB-0046             
1 45447U 20020Z   26090.09339615 -.00000251  00000+0 -74513-3 0  9993
2 45447  87.8910  36.5872 0001603  82.8792 277.2518 13.11413909292373
ONEWEB-0063             
1 45448U 20020AA  26090.27481919 -.00000097  00000+0 -30900-3 0  9999
2 45448  87.8915  36.5488 0001632  76.2653 283.8657 13.11420075292488
ONEWEB-0019             
1 45449U 20020AB  26090.23738940  .00000183  00000+0  48146-3 0  9990
2 45449  87.8901  36.5482 0001999  77.7635 282.3717 13.11415811292326
ONEWEB-0094             
1 45450U 20020AC  26090.21650168  .00000042  00000+0  74616-4 0  9991
2 45450  87.9194  21.3251 0002004  83.5743 276.5617 13.17649293296048
