[{"OBJECT_NAME":"ONEWEB-0018","OBJECT_ID":"2020-020L","EPOCH":"2026-03-31T05:49:21.491040","MEAN_MOTION":13.11417265,"ECCENTRICITY":0.0002123,"INCLINATION":87.8904,"RA_OF_ASC_NODE":36.5599,"ARG_OF_PERICENTER":89.2059,"MEAN_ANOMALY":270.9313,"EPHEMERIS_TYPE":0,"CLASSIFICATION_TYPE":"U","NORAD_CAT_ID":45434,"ELEMENT_SET_NO":999,"REV_AT_EPOCH":29241,"BSTAR":-0.00012433,"MEAN_MOTION_DOT":-3.1e-07,"MEAN_MOTION_DDOT":0.0},{"OBJECT_NAME":"ONEWEB-0083","OBJECT_ID":"2020-020M","EPOCH":"2026-03-31T05:35:57.051744","MEAN_MOTION":13.11415929,"ECCENTRICITY":0.0001936,"INCLINATION":87.8909,"RA_OF_ASC_NODE":36.5506,"ARG_OF_PERICENTER":79.7381,"MEAN_ANOMALY":280.3966,"EPHEMERIS_TYPE":0,"CLASSIFICATION_TYPE":"U","NORAD_CAT_ID":45435,"ELEMENT_SET_NO":999,"REV_AT_EPOCH":29245,"BSTAR":0.0011125,"MEAN_MOTION_DOT":4.07e-06,"MEAN_MOTION_DDOT":0.0},{"OBJECT_NAME":"ONEWEB-0095","OBJECT_ID":"2020-020N","EPOCH":"2026-03-31T05:22:42.326400","MEAN_MOTION":13.11415668,"ECCENTRICITY":0.0001554,"INCLINATION":87.8906,"RA_OF_ASC_NODE":36.5602,"ARG_OF_PERICENTER":55.6354,"MEAN_ANOMALY":304.4921,"EPHEMERIS_TYPE":0,"CLASSIFICATION_TYPE":"U","NORAD_CAT_ID":45436,"ELEMENT_SET_NO":999,"REV_AT_EPOCH":29245,"BSTAR":0.0016248000000000002,"MEAN_MOTION_DOT":5.89e-06,"MEAN_MOTION_DDOT":0.0},{"OBJECT_NAME":"ONEWEB-0092","OBJECT_ID":"2020-020P","EPOCH":"2026-03-31T02:52:21.007776","MEAN_MOTION":13.11419153,"ECCENTRICITY":0.0001527,"INCLINATION":87.891,"RA_OF_ASC_NODE":36.581,"ARG_OF_PERICENTER":74.6993,"MEAN_ANOMALY":285.4304,"EPHEMERIS_TYPE":0,"CLASSIFICATION_TYPE":"U","NORAD_CAT_ID":45437,"ELEMENT_SET_NO":999,"REV_AT_EPOCH":29255,"BSTAR":-0.00081829,"MEAN_MOTION_DOT":-2.77e-06,"MEAN_MOTION_DDOT":0.0},{"OBJECT_NAME":"ONEWEB-0085","OBJECT_ID":"2020-020Q","EPOCH":"2026-03-31T05:34:42.925728","MEAN_MOTION":13.11416427,"ECCENTRICITY":0.0001815,"INCLINATION":87.8904,"RA_OF_ASC_NODE":36.5623,"ARG_OF_PERICENTER":79.9061,"MEAN_ANOMALY":280.2272,"EPHEMERIS_TYPE":0,"CLASSIFICATION_TYPE":"U","NORAD_CAT_ID":45438,"ELEMENT_SET_NO":999,"REV_AT_EPOCH":29245,"BSTAR":0.0011272,"MEAN_MOTION_DOT":4.12e-06,"MEAN_MOTION_DDOT":0.0},{"OBJECT_NAME":"ONEWEB-0096","OBJECT_ID":"2020-020R","EPOCH":"2026-03-31T05:37:10.044192","MEAN_MOTION":13.11415579,"ECCENTRICITY":0.0001811,"INCLINATION":87.8909,"RA_OF_ASC_NODE":36.5513,"ARG_OF_PERICENTER":82.2255,"MEAN_ANOMALY":277.9078,"EPHEMERIS_TYPE":0,"CLASSIFICATION_TYPE":"U","NORAD_CAT_ID":45439,"ELEMENT_SET_NO":999,"REV_AT_EPOCH":29244,"BSTAR":0.00079985,"MEAN_MOTION_DOT":2.96e-06,"MEAN_MOTION_DDOT":0.0},{"OBJECT_NAME":"ONEWEB-0037","OBJECT_ID":"2020-020S","EPOCH":"2026-03-31T05:09:04.876128","MEAN_MOTION":13.11418554,"ECCENTRICITY":0.0001779,"INCLINATION":87.8919,"RA_OF_ASC_NODE":36.5324,"ARG_OF_PERICENTER":77.7805,"MEAN_ANOMALY":282.3522,"EPHEMERIS_TYPE":0,"CLASSIFICATION_TYPE":"U","NORAD_CAT_ID":45440,"ELEMENT_SET_NO":999,"REV_AT_EPOCH":29247,"BSTAR":0.0011903,"MEAN_MOTION_DOT":4.35e-06,"MEAN_MOTION_DDOT":0.0},{"OBJECT_NAME":"ONEWEB-0042","OBJECT_ID":"2020-020T","EPOCH":"2026-03-31T05:22:18.656256","MEAN_MOTION":13.11417471,"ECCENTRICITY":0.0001767,"INCLINATION":87.8908,"RA_OF_ASC_NODE":36.5505,"ARG_OF_PERICENTER":82.1571,"MEAN_ANOMALY":277.9758,"EPHEMERIS_TYPE":0,"CLASSIFICATION_TYPE":"U","NORAD_CAT_ID":45441,"ELEMENT_SET_NO":999,"REV_AT_EPOCH":29244,"BSTAR":0.0014325,"MEAN_MOTION_DOT":5.2e-06,"MEAN_MOTION_DDOT":0.0},{"OBJECT_NAME":"ONEWEB-0098","OBJECT_ID":"2020-020U","EPOCH":"2026-03-31T05:16:25.120416","MEAN_MOTION":13.11417533,"ECCENTRICITY":0.0001931,"INCLINATION":87.8905,"RA_OF_ASC_NODE":36.5622,"ARG_OF_PERICENTER":79.2295,"MEAN_ANOMALY":280.905,"EPHEMERIS_TYPE":0,"CLASSIFICATION_TYPE":"U","NORAD_CAT_ID":45442,"ELEMENT_SET_NO":999,"REV_AT_EPOCH":29242,"BSTAR":0.0015365,"MEAN_MOTION_DOT":5.57e-06,"MEAN_MOTION_DDOT":0.0},{"OBJECT_NAME":"ONEWEB-0055","OBJECT_ID":"2020-020V","EPOCH":"2026-03-31T06:41:50.662176","MEAN_MOTION":13.11420532,"ECCENTRICITY":0.0001926,"INCLINATION":87.8911,"RA_OF_ASC_NODE":36.5507,"ARG_OF_PERICENTER":79.3947,"MEAN_ANOMALY":280.7397,"EPHEMERIS_TYPE":0,"CLASSIFICATION_TYPE":"U","NORAD_CAT_ID":45443,"ELEMENT_SET_NO":999,"REV_AT_EPOCH":29240,"BSTAR":0.0001661,"MEAN_MOTION_DOT":7.2e-07,"MEAN_MOTION_DDOT":0.0},{"OBJECT_NAME":"ONEWEB-0093","OBJECT_ID":"2020-020W","EPOCH":"2026-03-31T02:26:55.065408","MEAN_MOTION":13.11416151,"ECCENTRICITY":0.000164,"INCLINATION":87.8908,"RA_OF_ASC_NODE":36.5757,"ARG_OF_PERICENTER":91.8165,"MEAN_ANOMALY":268.3151,"EPHEMERIS_TYPE":0,"CLASSIFICATION_TYPE":"U","NORAD_CAT_ID":45444,"ELEMENT_SET_NO":999,"REV_AT_EPOCH":29244,"BSTAR":-0.0014113,"MEAN_MOTION_DOT":-4.87e-06,"MEAN_MOTION_DDOT":0.0},{"OBJECT_NAME":"ONEWEB-0029","OBJECT_ID":"2020-020X","EPOCH":"2026-03-31T06:29:37.410432","MEAN_MOTION":13.11420352,"ECCENTRICITY":0.0001861,"INCLINATION":87.891,"RA_OF_ASC_NODE":36.5535,"ARG_OF_PERICENTER":84.5092,"MEAN_ANOMALY":275.6248,"EPHEMERIS_TYPE":0,"CLASSIFICATION_TYPE":"U","NORAD_CAT_ID":45445,"ELEMENT_SET_NO":999,"REV_AT_EPOCH":29244,"BSTAR":-0.00073093,"MEAN_MOTION_DOT":-2.46e-06,"MEAN_MOTION_DDOT":0.0},{"OBJECT_NAME":"ONEWEB-0068","OBJECT_ID":"2020-020Y","EPOCH":"2026-03-31T02:26:30.865632","MEAN_MOTION":13.1141653,"ECCENTRICITY":0.0001837,"INCLINATION":87.891,"RA_OF_ASC_NODE":36.5786,"ARG_OF_PERICENTER":86.0666,"MEAN_ANOMALY":274.0672,"EPHEMERIS_TYPE":0,"CLASSIFICATION_TYPE":"U","NORAD_CAT_ID":45446,"ELEMENT_SET_NO":999,"REV_AT_EPOCH":29236,"BSTAR":-0.001449,"MEAN_MOTION_DOT":-5.01e-06,"MEAN_MOTION_DDOT":0.0},{"OBJECT_NAME":"ONEWEB-0046","OBJECT_ID":"2020-020Z","EPOCH":"2026-03-31T02:14:29.427360","MEAN_MOTION":13.11413909,"ECCENTRICITY":0.0001603,"INCLINATION":87.891,"RA_OF_ASC_NODE":36.5872,"ARG_OF_PERICENTER":82.8792,"MEAN_ANOMALY":277.2518,"EPHEMERIS_TYPE":0,"CLASSIFICATION_TYPE":"U","NORAD_CAT_ID":45447,"ELEMENT_SET_NO":999,"REV_AT_EPOCH":29237,"BSTAR":-0.00074513,"MEAN_MOTION_DOT":-2.51e-06,"MEAN_MOTION_DDOT":0.0},{"OBJECT_NAME":"ONEWEB-0063","OBJECT_ID":"2020-020AA","EPOCH":"2026-03-31T06:35:44.378016","MEAN_MOTION":13.11420075,"ECCENTRICITY":0.0001632,"INCLINATION":87.8915,"RA_OF_ASC_NODE":36.5488,"ARG_OF_PERICENTER":76.2653,"MEAN_ANOMALY":283.8657,"EPHEMERIS_TYPE":0,"CLASSIFICATION_TYPE":"U","NORAD_CAT_ID":45448,"ELEMENT_SET_NO":999,"REV_AT_EPOCH":29248,"BSTAR":-0.00030900000000000003,"MEAN_MOTION_DOT":-9.7e-07,"MEAN_MOTION_DDOT":0.0},{"OBJECT_NAME":"ONEWEB-0019","OBJECT_ID":"2020-020AB","EPOCH":"2026-03-31T05:41:50.444160","MEAN_MOTION":13.11415811,"ECCENTRICITY":0.0001999,"INCLINATION":87.8901,"RA_OF_ASC_NODE":36.5482,"ARG_OF_PERICENTER":77.7635,"MEAN_ANOMALY":282.3717,"EPHEMERIS_TYPE":0,"CLASSIFICATION_TYPE":"U","NORAD_CAT_ID":45449,"ELEMENT_SET_NO":999,"REV_AT_EPOCH":29232,"BSTAR":0.00048146,"MEAN_MOTION_DOT":1.83e-06,"MEAN_MOTION_DDOT":0.0},{"OBJECT_NAME":"ONEWEB-0094","OBJECT_ID":"2020-020AC","EPOCH":"2026-03-31T05:11:45.745152","MEAN_MOTION":13.17649293,"ECCENTRICITY":0.0002004,"INCLINATION":87.9194,"RA_OF_ASC_NODE":21.3251,"ARG_OF_PERICENTER":83.5743,"MEAN_ANOMALY":276.5617,"EPHEMERIS_TYPE":0,"CLASSIFICATION_TYPE":"U","NORAD_CAT_ID":45450,"ELEMENT_SET_NO":999,"REV_AT_EPOCH":29604,"BSTAR":7.4616e-05,"MEAN_MOTION_DOT":4.2e-07,"MEAN_MOTION_DDOT":0.0}]